     3.00           N                   E                   RINEX VERSION / TYPE
BRD_USR             ESA                 20190109 091617  UTCPGM / RUN BY / DATE
 GAL   4.8250E+01  8.5938E-02 -3.9368E-03  0.0000E+00       IONOSPHERIC CORR
GAUT  0.0000000000E+00 0.000000000E+00 259200 2035 GSTB   0 TIME SYSTEM CORR
GPGA -5.5297277868E-10 4.884981308E-15 259200 2035 GSTB   0 TIME SYSTEM CORR
                                                            END OF HEADER
E01 2019 01 09 07 00 00-5.169166252017E-04-8.142819751811E-12 0.000000000000E+00
     9.000000000000E+01 5.775000000000E+01 2.425815330660E-09 1.711127805627E+00
     2.618879079819E-06 1.126436982304E-04 1.150742173195E-05 5.440624210358E+03
     2.844000000000E+05 4.470348358154E-08-2.947689733509E+00-3.725290298462E-08
     9.902688904570E-01 1.067812500000E+02-7.778492632640E-01-5.108427072207E-09
    -4.350181202508E-10 5.210000000000E+02 2.035000000000E+03 0.000000000000E+00
     3.120000000000E+00 0.000000000000E+00-4.656612873077E-09-5.122274160385E-09
     2.850850000000E+05 0.000000000000E+00 0.000000000000E+00 0.000000000000E+00
E02 2019 01 09 07 00 00 4.257669206709E-05 1.577404873387E-12 0.000000000000E+00
     9.000000000000E+01 3.009375000000E+01 2.481174779460E-09-1.967445759830E+00
     1.378357410431E-06 2.685405779630E-04 1.126900315285E-05 5.440621335983E+03
     2.844000000000E+05-6.891787052155E-08-2.947722726701E+00 1.862645149231E-08
     9.902774763232E-01 1.135937500000E+02-2.425877833835E-01-5.122356223840E-09
    -3.814444601214E-10 5.210000000000E+02 2.035000000000E+03 0.000000000000E+00
     3.120000000000E+00 0.000000000000E+00-6.053596735001E-09-7.450580596924E-09
     2.850850000000E+05 0.000000000000E+00 0.000000000000E+00 0.000000000000E+00
E05 2019 01 09 07 00 00 1.281725126319E-04-6.536993168993E-12 0.000000000000E+00
     9.000000000000E+01 8.781250000000E+00 3.334781764189E-09-9.471658656944E-01
     4.339963197708E-07 1.305718906224E-04 8.927658200264E-06 5.440614616394E+03
     2.844000000000E+05 3.166496753693E-08 1.242965326586E+00 7.450580596924E-09
     9.523552910891E-01 1.439062500000E+02 1.615417690825E+00-5.518801308798E-09
     4.989493546719E-10 5.210000000000E+02 2.035000000000E+03 0.000000000000E+00
     3.120000000000E+00 0.000000000000E+00-1.396983861923E-09-1.629814505577E-09
     2.850850000000E+05 0.000000000000E+00 0.000000000000E+00 0.000000000000E+00
E07 2019 01 09 07 00 00-1.092045567930E-04-7.048583938740E-12 0.000000000000E+00
     9.000000000000E+01 3.428125000000E+01 3.299423148503E-09-1.671101993934E+00
     1.624226570129E-06 1.389732351527E-04 8.961185812950E-06 5.440614896774E+03
     2.844000000000E+05-7.450580596924E-08 1.242983029358E+00-1.676380634308E-08
     9.523865551114E-01 1.458750000000E+02-1.854051464114E-02-5.540587930584E-09
     4.825200988989E-10 5.210000000000E+02 2.035000000000E+03 0.000000000000E+00
     3.120000000000E+00 0.000000000000E+00 2.328306436539E-10 2.328306436539E-10
     2.850850000000E+05 0.000000000000E+00 0.000000000000E+00 0.000000000000E+00
E11 2019 01 09 07 00 00 5.719386681449E-03 9.094947017729E-13 0.000000000000E+00
     9.000000000000E+01-4.543750000000E+01 3.188347093168E-09-2.366947205789E+00
    -2.192333340645E-06 2.562935696915E-04-2.235174179077E-07 5.440598941803E+03
     2.844000000000E+05-6.891787052155E-08-8.622432415148E-01 5.587935447693E-09
     9.819015315458E-01 3.559375000000E+02-3.689081818665E-01-5.928104072187E-09
    -8.036049019412E-11 5.210000000000E+02 2.035000000000E+03 0.000000000000E+00
     3.120000000000E+00 0.000000000000E+00-1.816079020500E-08-1.955777406693E-08
     2.850850000000E+05 0.000000000000E+00 0.000000000000E+00 0.000000000000E+00
E13 2019 01 09 07 00 00 3.815089003183E-04 5.400124791777E-13 0.000000000000E+00
     9.000000000000E+01-6.540625000000E+01 3.084414192517E-09 1.978657988236E+00
    -3.034248948097E-06 3.399782581255E-04-1.266598701477E-07 5.440597553253E+03
     2.844000000000E+05-7.450580596924E-09-8.675387226186E-01-3.166496753693E-08
     9.851426177729E-01 3.553750000000E+02-1.566471377729E+00-5.831671483954E-09
    -1.382200431339E-10 5.210000000000E+02 2.035000000000E+03 0.000000000000E+00
     3.120000000000E+00 4.550000000000E+02-4.190951585770E-09-5.355104804039E-09
     2.850850000000E+05 0.000000000000E+00 0.000000000000E+00 0.000000000000E+00
E15 2019 01 09 07 00 00 9.234580211341E-04-9.947598300641E-13 0.000000000000E+00
     9.000000000000E+01-5.959375000000E+01 3.071913671821E-09 2.840811438765E+00
    -2.700835466385E-06 3.867293708026E-04 6.332993507385E-08 5.440599164963E+03
     2.844000000000E+05 9.499490261078E-08-8.675501085100E-01-9.313225746155E-09
     9.851000688005E-01 3.495000000000E+02-1.646383683037E+00-5.881316409007E-09
    -1.042900583853E-10 5.210000000000E+02 2.035000000000E+03 0.000000000000E+00
     3.120000000000E+00 4.550000000000E+02 1.629814505577E-09 1.396983861923E-09
     2.850850000000E+05 0.000000000000E+00 0.000000000000E+00 0.000000000000E+00
E18 2019 01 09 07 00 00 5.619860312436E-03-2.850697455870E-11 0.000000000000E+00
     9.000000000000E+01 6.984375000000E+01 5.036281209899E-09-2.484293132895E+00
     5.016103386879E-06 1.663742847741E-01-7.165595889091E-06 5.289401014328E+03
     2.844000000000E+05 3.812834620476E-06-1.446278889995E+00 8.158385753632E-07
     8.817733222211E-01 4.562187500000E+02 1.439885544464E+00-6.857785654299E-09
     1.432202514126E-10 5.210000000000E+02 2.035000000000E+03 0.000000000000E+00
     3.120000000000E+00 4.550000000000E+02 1.420266926289E-08 1.606531441212E-08
     2.850850000000E+05 0.000000000000E+00 0.000000000000E+00 0.000000000000E+00
E19 2019 01 09 07 00 00-9.264622349292E-06 2.842170943040E-13 0.000000000000E+00
     9.000000000000E+01 2.090625000000E+01 3.288351258743E-09 7.444958048386E-01
     8.866190910339E-07 1.311299856752E-04 9.439885616302E-06 5.440614402771E+03
     2.844000000000E+05 9.313225746155E-09 1.239710325083E+00 4.470348358154E-08
     9.581146488866E-01 1.356250000000E+02 2.357597753398E+00-5.554159924483E-09
     5.085926134952E-10 5.210000000000E+02 2.035000000000E+03 0.000000000000E+00
     3.120000000000E+00 0.000000000000E+00-8.614733815193E-09-9.080395102501E-09
     2.850850000000E+05 0.000000000000E+00 0.000000000000E+00 0.000000000000E+00
E25 2019 01 09 07 00 00 1.929244259372E-03-1.138289462688E-11 0.000000000000E+00
     9.000000000000E+01 2.996875000000E+01 2.470817205169E-09-5.955543011700E-02
     1.367181539536E-06 2.120727440342E-04 1.129880547523E-05 5.440630382538E+03
     2.844000000000E+05-1.303851604462E-08-2.950305991333E+00-6.332993507385E-08
     9.898379338088E-01 1.082187500000E+02-1.345630866378E+00-5.154143262184E-09
    -4.443042213399E-10 5.210000000000E+02 2.035000000000E+03 0.000000000000E+00
     3.120000000000E+00 0.000000000000E+00-1.396983861923E-09-1.629814505577E-09
     2.850850000000E+05 0.000000000000E+00 0.000000000000E+00 0.000000000000E+00
E26 2019 01 09 07 00 00 5.040384770837E-03-4.328626346251E-11 0.000000000000E+00
     9.000000000000E+01-6.865625000000E+01 3.246206646108E-09 1.694696517495E+00
    -3.136694431305E-06 3.258413635194E-04-1.620501279831E-07 5.440605634689E+03
     2.844000000000E+05-2.048909664154E-08-8.586147204524E-01-5.587935447693E-08
     9.782599802720E-01 3.544375000000E+02-2.064390138616E+00-5.923103863908E-09
    -8.857511808063E-11 5.210000000000E+02 2.035000000000E+03 0.000000000000E+00
     3.120000000000E+00 0.000000000000E+00 1.164153218269E-09 1.164153218269E-09
     2.850850000000E+05 0.000000000000E+00 0.000000000000E+00 0.000000000000E+00
E31 2019 01 09 07 00 00 9.372545755468E-04-9.734435479913E-12 0.000000000000E+00
     9.000000000000E+01 4.700000000000E+01 2.416886387305E-09 1.680478716581E+00
     2.233311533928E-06 2.490899059922E-04 1.156330108643E-05 5.440628988266E+03
     2.844000000000E+05 2.607703208923E-08-2.950329541388E+00-3.725290298462E-08
     9.898079864128E-01 1.042812500000E+02-1.514952625595E+00-5.094855078307E-09
    -4.403754862638E-10 5.210000000000E+02 2.035000000000E+03 0.000000000000E+00
     3.120000000000E+00 0.000000000000E+00-4.656612873077E-10-4.656612873077E-10
     2.850850000000E+05 0.000000000000E+00 0.000000000000E+00 0.000000000000E+00
E33 2019 01 09 07 00 00 8.478851523250E-04 0.000000000000E+00 0.000000000000E+00
     9.000000000000E+01-6.396875000000E+01 3.193704459181E-09 3.196505276190E-01
    -2.922490239143E-06 3.646500408649E-04-2.365559339523E-07 5.440594705582E+03
     2.844000000000E+05-3.911554813385E-08-8.675745597228E-01 7.450580596924E-09
     9.851382480366E-01 3.596250000000E+02-1.481046846837E+00-5.948462063036E-09
    -7.857470152314E-11 5.210000000000E+02 2.035000000000E+03 0.000000000000E+00
     3.120000000000E+00 4.550000000000E+02-8.381903171539E-09-9.546056389809E-09
     2.850850000000E+05 0.000000000000E+00 0.000000000000E+00 0.000000000000E+00
E36 2019 01 09 07 00 00 7.617869996466E-04-4.462208380573E-12 0.000000000000E+00
     9.000000000000E+01-4.262500000000E+01 3.172274995130E-09-1.929600496292E+00
    -1.942738890648E-06 3.320894902572E-04-1.266598701477E-07 5.440594160080E+03
     2.844000000000E+05-2.421438694000E-08-8.675483091208E-01 5.215406417847E-08
     9.851469216779E-01 3.550000000000E+02-1.586286063296E+00-5.859529787221E-09
    -5.821671067396E-11 5.210000000000E+02 2.035000000000E+03 0.000000000000E+00
     3.120000000000E+00 4.550000000000E+02 1.164153218269E-09 1.396983861923E-09
     2.850850000000E+05 0.000000000000E+00 0.000000000000E+00 0.000000000000E+00
